STARLINK-31571          
1 59362U 24060Q   26068.57853069  .00000108  00000+0  13427-4 0  9991
2 59362  42.9986 260.6673 0000723 274.3865  85.6904 15.27572637110045
LIZZIESAT-2 (LS-2)      
1 62383U 24247G   26068.49140277  .00009388  00000+0  34517-3 0  9997
2 62383  44.9909 117.0823 0004092 327.5136  32.5495 15.28222796 67716
